[
    {
        "Altitude(m)": 607886.7392986232,
        "Argument of Periapsis(deg)": 0.0,
        "Eccentricity": 0.0,
        "Inclination(deg)": 60.0,
        "Latitude(deg)": 40.99857326297758,
        "Longitude(deg)": 119.97298243156126,
        "Mean Anomaly(deg)": 49.09090000000002,
        "RAAN(deg)": 190.0,
        "Satellite Name": "Test1 839",
        "Satellite Number": 839,
        "Semi-Major Axis(m)": 6980739.136638005,
        "Time(s)": 0
    },
    {
        "Altitude(m)": 607987.6534318363,
        "Argument of Periapsis(deg)": 0.00010418945913296404,
        "Eccentricity": 0.0,
        "Inclination(deg)": 60.0,
        "Latitude(deg)": 41.463663291936065,
        "Longitude(deg)": 120.47721135155366,
        "Mean Anomaly(deg)": 49.71100614546182,
        "RAAN(deg)": 189.99957995086027,
        "Satellite Name": "Test1 839",
        "Satellite Number": 839,
        "Semi-Major Axis(m)": 6980739.136638005,
        "Time(s)": 10
    }
]